[{"OBJECT_NAME":"STARLINK-34872","OBJECT_ID":"2025-184Z","EPOCH":"2026-03-09T17:36:51.448320","MEAN_MOTION":15.05653697,"ECCENTRICITY":0.00013414,"INCLINATION":97.6023,"RA_OF_ASC_NODE":122.6445,"ARG_OF_PERICENTER":111.5067,"MEAN_ANOMALY":248.6303,"EPHEMERIS_TYPE":0,"CLASSIFICATION_TYPE":"U","NORAD_CAT_ID":65296,"ELEMENT_SET_NO":999,"REV_AT_EPOCH":3130,"BSTAR":0.00022605427,"MEAN_MOTION_DOT":3.203e-5,"MEAN_MOTION_DDOT":0},{"OBJECT_NAME":"OBJECT H","OBJECT_ID":"2025-292H","EPOCH":"2026-03-09T22:24:53.558208","MEAN_MOTION":15.06373042,"ECCENTRICITY":0.00142604,"INCLINATION":97.6442,"RA_OF_ASC_NODE":145.7846,"ARG_OF_PERICENTER":348.9217,"MEAN_ANOMALY":11.1694,"EPHEMERIS_TYPE":0,"CLASSIFICATION_TYPE":"U","NORAD_CAT_ID":67000,"ELEMENT_SET_NO":999,"REV_AT_EPOCH":1338,"BSTAR":0.0005462937,"MEAN_MOTION_DOT":8.001e-5,"MEAN_MOTION_DDOT":0}]
